NORAD_CAT_ID,OBJECT_NAME,OBJECT_TYPE,EPOCH,MEAN_MOTION,ECCENTRICITY,INCLINATION,RA_OF_ASC_NODE,ARG_OF_PERICENTER,MEAN_ANOMALY,BSTAR,MEAN_MOTION_DOT,MEAN_MOTION_DDOT,TLE_LINE0,TLE_LINE1,TLE_LINE2,SEMIMAJOR_AXIS,PERIOD,APOGEE,PERIGEE,DECAYED
50804.0,STARLINK-3323,PAYLOAD,2024-05-10 17:22:37,15.0884274,0.0001087,53.2162,277.7336,84.9302,275.1814,0.0024636,0.00039141,0.0,0 STARLINK-3323,1 50804U 22001B   24131.72404848  .00039141  00000-0  24636-2 0  9991,2 50804  53.2162 277.7336 0001087  84.9302 275.1814 15.08842740130950,6917.872,95.437,540.489,538.985,0.0
50804.0,STARLINK-3323,PAYLOAD,2024-05-11 09:16:27,15.08925203,0.0001153,53.2162,274.7617,81.69,278.4223,0.0039146,0.00062714,0.0,0 STARLINK-3323,1 50804U 22001B   24132.38642918  .00062714  00000-0  39146-2 0  9990,2 50804  53.2162 274.7617 0001153  81.6900 278.4223 15.08925203131059,6917.62,95.432,540.283,538.687,0.0
50804.0,STARLINK-3323,PAYLOAD,2024-05-11 15:37:58,15.08904514,0.0001704,53.2166,273.5723,86.7867,273.332,7.686e-05,9.37e-06,0.0,0 STARLINK-3323,1 50804U 22001B   24132.65137582  .00000937  00000-0  76860-4 0  9991,2 50804  53.2166 273.5723 0001704  86.7867 273.3320 15.08904514131096,6917.683,95.433,540.727,538.369,0.0
50804.0,STARLINK-3323,PAYLOAD,2024-05-12 02:45:43,15.08753375,0.0002373,53.2168,271.4914,86.3197,273.8067,-0.003459,-0.00054793,0.0,0 STARLINK-3323,1 50804U 22001B   24133.11508913 -.00054793  00000-0 -34590-2 0  9996,2 50804  53.2168 271.4914 0002373  86.3197 273.8067 15.08753375131160,6918.145,95.443,541.652,538.369,0.0
50804.0,STARLINK-3323,PAYLOAD,2024-05-12 09:07:19,15.08690181,0.0003354,53.2159,270.3029,89.0448,271.0928,-0.0012974,-0.00020795,0.0,0 STARLINK-3323,1 50804U 22001B   24133.38008549 -.00020795  00000-0 -12974-2 0  9992,2 50804  53.2159 270.3029 0003354  89.0448 271.0928 15.08690181131200,6918.338,95.447,542.524,537.883,0.0
50804.0,STARLINK-3323,PAYLOAD,2024-05-12 15:28:55,15.08629342,0.0001295,53.2162,269.113,96.7658,263.3481,0.0016732,0.00026288,0.0,0 STARLINK-3323,1 50804U 22001B   24133.64508544  .00026288  00000-0  16732-2 0  9998,2 50804  53.2162 269.1130 0001295  96.7658 263.3481 15.08629342129995,6918.524,95.451,541.285,539.493,0.0
50804.0,STARLINK-3323,PAYLOAD,2024-05-13 02:36:39,15.08767261,0.0001017,53.2163,267.0297,116.7982,243.3114,0.0014801,0.00023299,0.0,0 STARLINK-3323,1 50804U 22001B   24134.10878942  .00023299  00000-0  14801-2 0  9996,2 50804  53.2163 267.0297 0001017 116.7982 243.3114 15.08767261131315,6918.103,95.442,540.671,539.264,0.0
50804.0,STARLINK-3323,PAYLOAD,2024-05-13 12:08:57,15.08879077,0.0001466,53.2164,265.247,109.237,250.878,0.0038855,0.00062162,0.0,0 STARLINK-3323,1 50804U 22001B   24134.50622434  .00062162  00000-0  38855-2 0  9990,2 50804  53.2164 265.2470 0001466 109.2370 250.8780 15.08879077131372,6917.761,95.435,540.64,538.612,0.0
50804.0,STARLINK-3323,PAYLOAD,2024-05-13 15:19:43,15.08888427,0.0001136,53.2157,264.6514,55.4806,304.6293,0.0023868,0.00037953,0.0,0 STARLINK-3323,1 50804U 22001B   24134.63869911  .00037953  00000-0  23868-2 0  9995,2 50804  53.2157 264.6514 0001136  55.4806 304.6293 15.08888427130146,6917.732,95.434,540.383,538.812,0.0
50804.0,STARLINK-3323,PAYLOAD,2024-05-14 11:59:40,15.08936339,0.0001149,53.2167,260.7858,53.6054,306.5044,0.0016036,0.00025393,0.0,0 STARLINK-3323,1 50804U 22001B   24135.49977475  .00025393  00000-0  16036-2 0  9999,2 50804  53.2167 260.7858 0001149  53.6054 306.5044 15.08936339131528,6917.586,95.431,540.246,538.656,0.0
50804.0,STARLINK-3323,PAYLOAD,2024-05-15 11:50:24,15.08865439,0.0001075,53.2167,256.3255,93.1384,266.9731,0.00025253,3.736e-05,0.0,0 STARLINK-3323,1 50804U 22001B   24136.49333395  .00003736  00000-0  25253-3 0  9996,2 50804  53.2167 256.3255 0001075  93.1384 266.9731 15.08865439131673,6917.803,95.436,540.411,538.924,0.0
50804.0,STARLINK-3323,PAYLOAD,2024-05-15 13:25:47,15.08859808,9.96e-05,53.2167,256.0283,84.8607,275.2499,0.00087749,0.00013712,0.0,0 STARLINK-3323,1 50804U 22001B   24136.55957370  .00013712  00000-0  87749-3 0  9991,2 50804  53.2167 256.0283 0000996  84.8607 275.2499 15.08859808130437,6917.82,95.436,540.374,538.996,0.0
50804.0,STARLINK-3323,PAYLOAD,2024-05-16 11:41:10,15.08862469,9.52e-05,53.216,251.8656,100.5024,259.6075,0.0021012,0.00033332,0.0,0 STARLINK-3323,1 50804U 22001B   24137.48692554  .00033332  00000-0  21012-2 0  9994,2 50804  53.2160 251.8656 0000952 100.5024 259.6075 15.08862469131825,6917.812,95.436,540.335,539.018,0.0
50804.0,STARLINK-3323,PAYLOAD,2024-05-16 14:51:56,15.08880893,9.21e-05,53.2158,251.2712,97.098,263.0117,0.0033474,0.0005345,0.0,0 STARLINK-3323,1 50804U 22001B   24137.61940220  .00053450  00000-0  33474-2 0  9993,2 50804  53.2158 251.2712 0000921  97.0980 263.0117 15.08880893130596,6917.755,95.435,540.258,538.983,0.0
50804.0,STARLINK-3323,PAYLOAD,2024-05-17 11:31:56,15.08810605,0.0001627,53.2154,247.401,87.3672,272.7507,-0.00015817,-2.802e-05,0.0,0 STARLINK-3323,1 50804U 22001B   24138.48052007 -.00002802  00000-0 -15817-3 0  9995,2 50804  53.2154 247.4010 0001627  87.3672 272.7507 15.08810605131971,6917.97,95.439,540.961,538.71,0.0
50804.0,STARLINK-3323,PAYLOAD,2024-05-18 00:15:02,15.08843603,0.0001783,53.216,245.0243,88.2251,271.8945,0.0026133,0.00041553,0.0,0 STARLINK-3323,1 50804U 22001B   24139.01044993  .00041553  00000-0  26133-2 0  9996,2 50804  53.2160 245.0243 0001783  88.2251 271.8945 15.08843603132056,6917.869,95.437,540.968,538.501,0.0
50804.0,STARLINK-3323,PAYLOAD,2024-05-18 12:58:08,15.0884745,0.0001435,53.214,242.6462,98.7623,261.3531,0.0032463,0.00051767,0.0,0 STARLINK-3323,1 50804U 22001B   24139.54037274  .00051767  00000-0  32463-2 0  9999,2 50804  53.2140 242.6462 0001435  98.7623 261.3531 15.08847450132131,6917.858,95.437,540.715,538.73,0.0
50804.0,STARLINK-3323,PAYLOAD,2024-05-18 14:33:31,15.08858845,0.000152,53.2145,242.3486,96.7992,263.3173,0.0028246,0.00044976,0.0,0 STARLINK-3323,1 50804U 22001B   24139.60661139  .00044976  00000-0  28246-2 0  9997,2 50804  53.2145 242.3486 0001520  96.7992 263.3173 15.08858845130896,6917.823,95.436,540.739,538.636,0.0
50804.0,STARLINK-3323,PAYLOAD,2024-05-19 12:48:55,15.08802589,0.0001558,53.2155,238.1836,71.0253,289.0907,0.0025678,0.00040773,0.0,0 STARLINK-3323,1 50804U 22001B   24140.53397731  .00040773  00000-0  25678-2 0  9992,2 50804  53.2155 238.1836 0001558  71.0253 289.0907 15.08802589131037,6917.995,95.44,540.938,538.782,0.0
50804.0,STARLINK-3323,PAYLOAD,2024-05-20 12:39:43,15.0885171,0.0001519,53.2156,233.7209,75.7714,284.3447,0.0015816,0.00024981,0.0,0 STARLINK-3323,1 50804U 22001B   24141.52758416  .00024981  00000-0  15816-2 0  9999,2 50804  53.2156 233.7209 0001519  75.7714 284.3447 15.08851710132435,6917.845,95.437,540.76,538.659,0.0
50804.0,STARLINK-3323,PAYLOAD,2024-05-21 09:19:43,15.0884662,0.0001525,53.2159,229.8526,91.1658,268.9509,0.00034247,5.168e-05,0.0,0 STARLINK-3323,1 50804U 22001B   24142.38870194  .00005168  00000-0  34247-3 0  9998,2 50804  53.2159 229.8526 0001525  91.1658 268.9509 15.08846620132567,6917.86,95.437,540.78,538.67,0.0
50804.0,STARLINK-3323,PAYLOAD,2024-05-22 12:21:17,15.08836073,0.0001398,53.2159,224.799,87.8122,272.303,-3.6615e-05,-8.71e-06,0.0,0 STARLINK-3323,1 50804U 22001B   24143.51478622 -.00000871  00000-0 -36615-4 0  9994,2 50804  53.2159 224.7990 0001398  87.8122 272.3030 15.08836073132730,6917.892,95.438,540.725,538.79,0.0
50804.0,STARLINK-3323,PAYLOAD,2024-05-23 12:12:04,15.08834654,0.0001333,53.2163,220.3405,94.5089,265.6055,7.4815e-05,9.03e-06,0.0,0 STARLINK-3323,1 50804U 22001B   24144.50838956  .00000903  00000-0  74815-4 0  9992,2 50804  53.2163 220.3405 0001333  94.5089 265.6055 15.08834654131637,6917.897,95.438,540.684,538.84,0.0
50804.0,STARLINK-3323,PAYLOAD,2024-05-24 04:05:55,15.08838461,0.0001324,53.2166,217.3666,97.0929,263.0214,0.00013526,1.865e-05,0.0,0 STARLINK-3323,1 50804U 22001B   24145.17078664  .00001865  00000-0  13526-3 0  9997,2 50804  53.2166 217.3666 0001324  97.0929 263.0214 15.08838461132984,6917.885,95.438,540.666,538.834,0.0
50804.0,STARLINK-3323,PAYLOAD,2024-05-24 12:02:51,15.08847358,0.000133,53.2164,215.8812,97.4345,262.6798,0.0002122,3.092e-05,0.0,0 STARLINK-3323,1 50804U 22001B   24145.50197962  .00003092  00000-0  21220-3 0  9991,2 50804  53.2164 215.8812 0001330  97.4345 262.6798 15.08847358133035,6917.858,95.437,540.643,538.803,0.0
50804.0,STARLINK-3323,PAYLOAD,2024-05-24 21:35:09,15.08848573,0.0001167,53.216,214.103,142.237,217.8704,0.00012915,1.769e-05,0.0,0 STARLINK-3323,1 50804U 22001B   24145.89941597  .00001769  00000-0  12915-3 0  9994,2 50804  53.2160 214.1030 0001167 142.2370 217.8704 15.08848573131846,6917.854,95.437,540.526,538.912,0.0
50804.0,STARLINK-3323,PAYLOAD,2024-05-25 11:53:41,15.08803946,0.0001127,53.2163,211.4256,97.1918,262.9203,-0.0001045,-1.949e-05,0.0,0 STARLINK-3323,1 50804U 22001B   24146.49561791 -.00001949  00000-0 -10450-3 0  9999,2 50804  53.2163 211.4256 0001127  97.1918 262.9203 15.08803946133180,6917.991,95.44,540.635,539.076,0.0
50804.0,STARLINK-3323,PAYLOAD,2024-05-25 13:29:04,15.08803392,0.0001183,53.2161,211.1279,104.7514,255.361,-0.00010532,-1.962e-05,0.0,0 STARLINK-3323,1 50804U 22001B   24146.56185939 -.00001962  00000-0 -10532-3 0  9999,2 50804  53.2161 211.1279 0001183 104.7514 255.3610 15.08803392131944,6917.992,95.44,540.676,539.039,0.0
50804.0,STARLINK-3323,PAYLOAD,2024-05-26 03:47:32,15.08826724,0.0001027,53.2166,208.4482,106.6761,253.4344,-0.00010886,-2.019e-05,0.0,0 STARLINK-3323,1 50804U 22001B   24147.15801000 -.00002019  00000-0 -10886-3 0  9995,2 50804  53.2166 208.4482 0001027 106.6761 253.4344 15.08826724133282,6917.921,95.438,540.496,539.075,0.0
50804.0,STARLINK-3323,PAYLOAD,2024-05-26 10:09:02,15.08851682,0.0001133,53.2164,207.2576,107.5025,252.6091,8.2957e-05,1.033e-05,0.0,0 STARLINK-3323,1 50804U 22001B   24147.42295027  .00001033  00000-0  82957-4 0  9993,2 50804  53.2164 207.2576 0001133 107.5025 252.6091 15.08851682133328,6917.845,95.437,540.493,538.926,0.0
